#dP2023 11  2  0  0  0.00000000      96 __u+U IGS20 EXT  IAC
## 2286 345600.00000000   900.00000000 60250 0.0000000000000
+  118   C06C07C08C09C10C11C12C13C14C16C19C20C21C22C23C24C25
+        C26C27C28C29C30C32C33C34C35C36C37C38C39C40C41C42C43
+        C44C45C46E02E03E04E05E07E08E09E10E11E12E13E15E19E21
+        E24E25E26E27E30E31E33E34E36G01G02G03G04G05G06G07G08
+        G09G10G11G12G13G14G15G16G17G18G19G20G21G22G23G24G25
+        G26G27G28G29G30G31G32J02J03J04R01R02R03R04R05R07R08
+        R09R11R12R13R14R15R16R17R18R19R20R21R22R24R25R26  0
++        11 10  9 10 10 10  9 10  9 11  9  9  7  7  7  8  8
++         9  9  7  9  8  7  7  9  0  9  8 10 11 10  9  7  9
++         7  8 10  8  7  8  7  7  7  8  8  9  8  8  7  7  7
++         8  8  8  7  7  8  8  8  8  6  6  9  7  7 11  7  7
++         7  7  7  7  8  7  8  7  8  7  8  8  6  7  8  8  8
++         7  7  7  8  8  8  8 14  9  9  8 10  9  7  7  9  8
++         8  8  9  9  7  8  7  9  7  8  9  6  7  7  8  8  0
%c M  cc GPS ccc cccc cccc cccc cccc ccccc ccccc ccccc ccccc
%c cc cc ccc ccc cccc cccc cccc cccc ccccc ccccc ccccc ccccc
%f  0.0000000  0.000000000  0.00000000000  0.000000000000000
%f  0.0000000  0.000000000  0.00000000000  0.000000000000000
%i    0    0    0    0      0      0      0      0         0
%i    0    0    0    0      0      0      0      0         0
/* IAC                                ULTRA-RAPID PREDICTION
/* S/V CLOCKS ARE ALIGNED TO GNSS TIME                      
/* G:C1WC2W R:C1PC2P E:C1XC5X C:C2IC6I J:C1CC2S             
/* PCV:IGS20_2280 OL/AL:FES2004  NONE     YN ORB:CoN CLK:CoN
*  2023 11 02 22 30  0.00000000
PC06 -17910.652850  29372.761002 -24521.544468     81.990123
PC07  -7054.979631  39418.651237 -12799.897349   -256.920529
PC08  -1923.907024  21876.599509  36017.108566    262.597482
PC09 -10439.988248  28112.504629 -29448.561085    -38.797029
PC10   -159.943756  41484.585564  -5369.297919     -3.095509
PC11   9926.674306  11854.546744  23306.673767    236.011799
PC12  -7888.436124  21710.251584  15695.381472    873.479198
PC13   4311.807300  25376.358748  33619.805045    376.953371
PC14  13264.358871  22084.718469 -10658.572506    707.516244
PC16 -22420.878609  28717.130970 -21252.702235   -156.173203
PC19 -16184.941743 -14010.169141  17926.237530   -974.644246
PC20  -9149.516901 -26156.949770   3400.473459    150.514696
PC21  -4118.595215  23476.810952  14504.578373   -969.094334
PC22 -14309.734545   6863.818274  22940.765443   -240.928097
PC23  25290.414668  -1726.747402  11681.472509   -829.913985
PC24  10382.030410  17321.683558 -19286.063040    557.447095
PC25  25692.846903   9900.204216  -4626.317680    246.856599
PC26  -9264.476016  14140.304516 -22214.786182   -200.655468
PC27  14718.090467 -22212.851387  -8295.441333    222.483682
PC28  22677.794430 -14287.040601   7791.395734    167.701352
PC29 -17560.331025  -3393.420739 -21420.749949    196.129516
PC30  -1687.996493 -18928.985147 -20432.124992     -7.619208
PC32   4004.723621 -23455.369709 -14578.086065   -532.581227
PC33  16269.341573  13999.071838 -17834.973140   -947.835653
PC34   3053.680973  18129.977190  20990.641657    294.833117
PC35      0.000000      0.000000      0.000000    511.525768
PC36 -25064.697198 -10985.474809   5445.951783   -151.587652
PC37  10427.463054 -13577.658664  22051.332045   -873.235170
PC38 -11217.967243  19817.782885  35519.061385    115.188654
PC39 -24689.097539  29659.664420 -17247.703703     -5.511167
PC40 -11951.811102  36848.501346 -16308.344626    -42.497653
PC41  14568.990889  -6097.155050 -22962.151273   -871.543529
PC42   8271.275458  26574.119907  -1850.092885   -507.592899
PC43  17073.899683   4355.529112  21630.432990     46.611293
PC44 -14001.222615  22771.727941   8047.986359    280.854686
PC45 -25000.470183   2038.716134 -12203.821712    -42.348521
PC46 -11539.276336 -17126.281092  18743.568359    -96.722079
PE02 -14186.006916   9169.531155 -24307.506418     75.181303
PE03 -16568.535958  20647.554805  13221.951006    -70.500428
PE04   5747.324671 -28603.914847   4988.683762   -248.577195
PE05 -17739.584124    775.802494  23677.976350     33.589711
PE07   8254.467195  20064.104894 -20137.068941    -85.715364
PE08  -6112.326557  28606.847902  -4506.558689   -171.015132
PE09  -8054.354993 -20148.673186  20130.865632   -213.771207
PE10  -4682.062434 -15341.809348 -24877.875077   -575.906953
PE11 -16175.700606 -11246.340462 -22097.398412   3166.074463
PE12   6293.347116 -16824.257255 -23523.126384   -761.332918
PE13  15460.376898  11518.085262  22468.924500    -19.611769
PE15  -6835.444252  16778.876708  23416.333127    -66.306018
PE19  17322.592265 -18557.165031 -15219.925903  -1295.405693
PE21  22984.126792   8996.230867  16344.658721   -562.109816
PE24 -18441.160017 -23050.456601   1989.685279   -410.178996
PE25 -23030.960022  -9337.413875 -16066.972982     -3.749049
PE26  28572.904655   -777.581116   7722.591336    269.562350
PE27  18820.680070  22806.151061  -1495.242810   -190.178297
PE30   3181.903924  22933.208787 -18458.899416   -630.533265
PE31  -3597.715501 -23016.841177  18265.729814     -9.261377
PE33  25188.196399 -11850.129176 -10080.548873      1.548939
PE34 -24779.034219  12184.129359  10641.519944    -75.815015
PE36 -28381.438483    402.822685  -8388.413545   -138.623987
PG01  -3509.733089 -14315.884971 -22443.733463    163.254288
PG02   3376.845002 -15728.200946 -20593.426477   -534.062614
PG03 -10277.018597 -22290.839040 -10427.079029    -39.773970
PG04  -1246.646176 -22902.513731  13287.927015    202.084738
PG05  -1585.207092  17687.007466  19541.432352   -148.897388
PG06 -25858.083906   6061.169811   1779.160431    515.877597
PG07 -20463.063540  -7551.170302  15951.653698     23.713240
PG08   4479.352935 -25579.357510  -4488.931773   -150.243883
PG09  -9624.078909 -15188.797869  19442.377083    -14.402944
PG10  20005.775271   6138.903152 -16364.118102    -59.847623
PG11 -19754.119299  12048.614780  13012.386979   -443.158594
PG12   6973.916891  22833.877365 -11993.157616   -442.764725
PG13 -13447.594402  22574.369711   2764.886349    591.017468
PG14 -20717.365355  -9320.067694 -13878.954443    232.126134
PG15   -346.769504  25900.840476  -5788.150210     93.281145
PG16   8426.756152 -13218.019455  21058.330309   -428.778813
PG17 -15709.181269    564.784866 -20992.601941    723.538265
PG18  21588.854135   6023.893520  14403.225987   -467.734291
PG19 -17554.407332   8932.382819 -17844.485347    393.561122
PG20 -12299.315451   9752.479823  21454.261258    403.618142
PG21   6464.402439 -15999.269675 -19401.848429    145.266696
PG22 -18244.756526  -3190.880278 -18479.038178     91.142042
PG23  20482.540702  15938.303574  -6078.514970     92.523552
PG24   -925.030117  16546.947247 -21083.146750   -361.849861
PG25  17242.215646  20374.757795  -1281.643527    475.643639
PG26  15954.856771  -5564.798506  20432.780547    219.265976
PG27  12790.971661 -21615.459232   7698.365678    -64.406774
PG28  25929.870681  -5737.234728   -533.169663    -37.795157
PG29   7753.727258  15956.599110  19689.331245   -610.236832
PG30 -25768.719446   -307.376638   7099.177714   -472.320578
PG31  23419.509566  -9977.158634   8090.877008   -225.344620
PG32  16408.353673  -5127.865065 -20006.810607   -580.944877
PJ02 -20125.552996  22237.685219 -25103.411776     -6.870548
PJ03 -30190.860768  28637.810950  12105.404485     -6.961484
PJ04 -26757.188750  27380.412284  23551.506233     71.859334
PR01  11186.987349   6267.226646 -22055.824544     68.969976
PR02   8657.030463 -12892.743355 -20174.762369    -22.353185
PR03   1330.386828 -24580.371119  -6517.920431     88.274512
PR04  -6237.518803 -22448.961930  10381.362588    209.457351
PR05 -10582.621186  -8237.297156  21696.027160    121.616838
PR07   -993.502695  24862.436109   5784.569602     68.240138
PR08   6471.999467  22365.290932 -10415.030935    -73.172531
PR09 -16575.832582   2956.439293 -19174.139711    151.079092
PR11  15449.728247  14613.305576 -14064.377260   -210.416353
PR12  23510.187162   8753.639199   4687.871363     33.018760
PR13  18015.972741  -1165.707111  18007.912525    -40.852665
PR14     82.220723 -12028.368914  22507.173659     25.492255
PR15 -16356.992562 -14728.856952  12913.390067     84.957326
PR16 -23554.511973  -8820.223374  -4342.946222     20.261643
PR17  11576.030237 -16372.303945 -15782.826405     31.378061
PR18  -3830.893490  -9953.610437 -23147.536246    110.006867
PR19 -16388.395950   -188.047598 -19535.253963   -253.225555
PR20 -22121.758217  12639.589826  -1543.761620   -102.860609
PR21 -11029.511596  16102.466121  16409.380535    -50.391558
PR22   4676.613035   9898.880952  23069.793602     91.658285
PR24  21520.853890 -13683.219380    991.615034    -30.649388
PR25 -12084.415959  16020.624901  15740.547047     -6.518137
PR26   6417.036085  22573.206774  -9961.796010    -18.321330
EOF
